STARLINK-30116          
1 57465U 23107J   26068.15144248 -.00001702  00000+0 -53767-4 0  9994
2 57465  43.0029 339.2408 0001961 277.6766  82.3863 15.26729842145066
FLOCK 4G-21             
1 62651U 25009AU  26068.19487675  .00013648  00000+0  49619-3 0  9998
2 62651  97.4032 151.1274 0000465 329.5782  30.5431 15.28381075 63677
